TOMORROW-S3             
1 62392U 24247R   26068.49782200  .00007664  00000+0  28858-3 0  9991
2 62392  44.9999 117.9871 0000396 320.9462  39.1392 15.27672122 67708
STARLINK-36408          
1 67473U 26008AE  26068.38016028  .00033053  00000+0  12044-2 0  9999
2 67473  42.9933 207.0577 0002267 173.6156 186.4724 15.27602816  9529
