[{"OBJECT_NAME":"TOMORROW-S3","OBJECT_ID":"2024-247R","EPOCH":"2026-03-09T11:56:51.820800","MEAN_MOTION":15.27672122,"ECCENTRICITY":3.967e-5,"INCLINATION":44.9999,"RA_OF_ASC_NODE":117.9871,"ARG_OF_PERICENTER":320.9462,"MEAN_ANOMALY":39.1392,"EPHEMERIS_TYPE":0,"CLASSIFICATION_TYPE":"U","NORAD_CAT_ID":62392,"ELEMENT_SET_NO":999,"REV_AT_EPOCH":6770,"BSTAR":0.00028857954,"MEAN_MOTION_DOT":7.664e-5,"MEAN_MOTION_DDOT":0},{"OBJECT_NAME":"STARLINK-36408","OBJECT_ID":"2026-008AE","EPOCH":"2026-03-09T09:07:25.848192","MEAN_MOTION":15.27602816,"ECCENTRICITY":0.00022677,"INCLINATION":42.9933,"RA_OF_ASC_NODE":207.0577,"ARG_OF_PERICENTER":173.6156,"MEAN_ANOMALY":186.4724,"EPHEMERIS_TYPE":0,"CLASSIFICATION_TYPE":"U","NORAD_CAT_ID":67473,"ELEMENT_SET_NO":999,"REV_AT_EPOCH":952,"BSTAR":0.0012043824,"MEAN_MOTION_DOT":0.00033053,"MEAN_MOTION_DDOT":0}]
